{"type": "FeatureCollection", "features": [ {"type": "Feature", "properties": {"norad_id": 44543, "name": "BEIDOU-3 M23 (C45)", "group": "beidou", "lat": -17.935793939310454, "lon": 175.0933924990077, "alt_km": 21519.71356480591, "timestamp": "2025-12-26T23:26:42.395071+00:00", "meta": {"OBJECT_NAME": "BEIDOU-3 M23 (C45)", "OBJECT_ID": "2019-061B", "EPOCH": "2025-12-26T11:37:48.857664", "MEAN_MOTION": 1.86227559, "ECCENTRICITY": 0.0005976, "INCLINATION": 54.3995, "RA_OF_ASC_NODE": 188.5205, "ARG_OF_PERICENTER": 25.6827, "MEAN_ANOMALY": 342.0898, "EPHEMERIS_TYPE": 0, "CLASSIFICATION_TYPE": "U", "NORAD_CAT_ID": 44543, "ELEMENT_SET_NO": 999, "REV_AT_EPOCH": 4258, "BSTAR": 0, "MEAN_MOTION_DOT": 1.22e-06, "MEAN_MOTION_DDOT": 0}, "tle": {"line1": "1 44543U 19061B   25360.48459326  .00000122  00000+0  00000+0 0  9997", "line2": "2 44543  54.3995 188.5205 0005976  25.6827 342.0898  1.86227559 42581"}}, "geometry": {"type": "Point", "coordinates": [175.0933924990077, -17.935793939310454]}}, {"type": "Feature", "properties": {"norad_id": 44793, "name": "BEIDOU-3 M22 (C44)", "group": "beidou", "lat": 6.088663907780877, "lon": 121.44388277509312, "alt_km": 21541.978226145096, "timestamp": "2025-12-26T23:26:42.395081+00:00", "meta": {"OBJECT_NAME": "BEIDOU-3 M22 (C44)", "OBJECT_ID": "2019-078A", "EPOCH": "2025-12-26T04:23:18.195072", "MEAN_MOTION": 1.86232141, "ECCENTRICITY": 0.0006121, "INCLINATION": 54.096, "RA_OF_ASC_NODE": 305.9151, "ARG_OF_PERICENTER": 23.7349, "MEAN_ANOMALY": 336.3032, "EPHEMERIS_TYPE": 0, "CLASSIFICATION_TYPE": "U", "NORAD_CAT_ID": 44793, "ELEMENT_SET_NO": 999, "REV_AT_EPOCH": 4142, "BSTAR": 0, "MEAN_MOTION_DOT": -5.6e-07, "MEAN_MOTION_DDOT": 0}, "tle": {"line1": "1 44793U 19078A   25360.18284948 -.00000056  00000+0  00000+0 0  9992", "line2": "2 44793  54.0960 305.9151 0006121  23.7349 336.3032  1.86232141 41424"}}, "geometry": {"type": "Point", "coordinates": [121.44388277509312, 6.088663907780877]}}, {"type": "Feature", "properties": {"norad_id": 44794, "name": "BEIDOU-3 M21 (C43)", "group": "beidou", "lat": 52.87606903522951, "lon": 18.978657472683665, "alt_km": 21517.50989588098, "timestamp": "2025-12-26T23:26:42.395091+00:00", "meta": {"OBJECT_NAME": "BEIDOU-3 M21 (C43)", "OBJECT_ID": "2019-078B", "EPOCH": "2025-12-25T05:55:32.884896", "MEAN_MOTION": 1.86227898, "ECCENTRICITY": 0.0004304, "INCLINATION": 54.0703, "RA_OF_ASC_NODE": 305.9129, "ARG_OF_PERICENTER": 12.6939, "MEAN_ANOMALY": 347.3266, "EPHEMERIS_TYPE": 0, "CLASSIFICATION_TYPE": "U", "NORAD_CAT_ID": 44794, "ELEMENT_SET_NO": 999, "REV_AT_EPOCH": 4141, "BSTAR": 0, "MEAN_MOTION_DOT": -5.3e-07, "MEAN_MOTION_DDOT": 0}, "tle": {"line1": "1 44794U 19078B   25359.24690839 -.00000053  00000+0  00000+0 0  9995", "line2": "2 44794  54.0703 305.9129 0004304  12.6939 347.3266  1.86227898 41411"}}, "geometry": {"type": "Point", "coordinates": [18.978657472683665, 52.87606903522951]}}, {"type": "Feature", "properties": {"norad_id": 44864, "name": "BEIDOU-3 M19 (C41)", "group": "beidou", "lat": -55.996931999142916, "lon": -11.294367766645342, "alt_km": 21483.17693691743, "timestamp": "2025-12-26T23:26:42.395101+00:00", "meta": {"OBJECT_NAME": "BEIDOU-3 M19 (C41)", "OBJECT_ID": "2019-090A", "EPOCH": "2025-12-26T13:40:26.964192", "MEAN_MOTION": 1.86231444, "ECCENTRICITY": 0.001848, "INCLINATION": 56.4042, "RA_OF_ASC_NODE": 68.5033, "ARG_OF_PERICENTER": 285.3121, "MEAN_ANOMALY": 77.4787, "EPHEMERIS_TYPE": 0, "CLASSIFICATION_TYPE": "U", "NORAD_CAT_ID": 44864, "ELEMENT_SET_NO": 999, "REV_AT_EPOCH": 4102, "BSTAR": 0, "MEAN_MOTION_DOT": -3.2e-07, "MEAN_MOTION_DDOT": 0}, "tle": {"line1": "1 44864U 19090A   25360.56975653 -.00000032  00000+0  00000+0 0  9991", "line2": "2 44864  56.4042  68.5033 0018480 285.3121  77.4787  1.86231444 41027"}}, "geometry": {"type": "Point", "coordinates": [-11.294367766645342, -55.996931999142916]}}, {"type": "Feature", "properties": {"norad_id": 44865, "name": "BEIDOU-3 M20 (C42)", "group": "beidou", "lat": 4.559801803850665, "lon": 71.57457276973093, "alt_km": 21511.42520144781, "timestamp": "2025-12-26T23:26:42.395111+00:00", "meta": {"OBJECT_NAME": "BEIDOU-3 M20 (C42)", "OBJECT_ID": "2019-090B", "EPOCH": "2025-12-26T13:03:31.682016", "MEAN_MOTION": 1.86231463, "ECCENTRICITY": 0.0015612, "INCLINATION": 56.4057, "RA_OF_ASC_NODE": 68.5385, "ARG_OF_PERICENTER": 297.4355, "MEAN_ANOMALY": 137.7791, "EPHEMERIS_TYPE": 0, "CLASSIFICATION_TYPE": "U", "NORAD_CAT_ID": 44865, "ELEMENT_SET_NO": 999, "REV_AT_EPOCH": 4100, "BSTAR": 0, "MEAN_MOTION_DOT": -3.2e-07, "MEAN_MOTION_DDOT": 0}, "tle": {"line1": "1 44865U 19090B   25360.54411669 -.00000032  00000+0  00000+0 0  9992", "line2": "2 44865  56.4057  68.5385 0015612 297.4355 137.7791  1.86231463 41005"}}, "geometry": {"type": "Point", "coordinates": [71.57457276973093, 4.559801803850665]}}, {"type": "Feature", "properties": {"norad_id": 45344, "name": "BEIDOU-3 G2 (C60)", "group": "beidou", "lat": 2.116210565091737, "lon": 167.4340806894513, "alt_km": 35789.51982927706, "timestamp": "2025-12-26T23:26:42.395122+00:00", "meta": {"OBJECT_NAME": "BEIDOU-3 G2 (C60)", "OBJECT_ID": "2020-017A", "EPOCH": "2025-12-26T19:18:42.701760", "MEAN_MOTION": 1.00271889, "ECCENTRICITY": 0.0002166, "INCLINATION": 2.5215, "RA_OF_ASC_NODE": 44.1536, "ARG_OF_PERICENTER": 237.3433, "MEAN_ANOMALY": 183.7714, "EPHEMERIS_TYPE": 0, "CLASSIFICATION_TYPE": "U", "NORAD_CAT_ID": 45344, "ELEMENT_SET_NO": 999, "REV_AT_EPOCH": 2153, "BSTAR": 0, "MEAN_MOTION_DOT": -1.19e-06, "MEAN_MOTION_DDOT": 0}, "tle": {"line1": "1 45344U 20017A   25360.80466090 -.00000119  00000+0  00000+0 0  9999", "line2": "2 45344   2.5215  44.1536 0002166 237.3433 183.7714  1.00271889 21538"}}, "geometry": {"type": "Point", "coordinates": [167.4340806894513, 2.116210565091737]}}, {"type": "Feature", "properties": {"norad_id": 45807, "name": "BEIDOU-3 G3 (C61)", "group": "beidou", "lat": 1.5212072777541452, "lon": -162.10087043072474, "alt_km": 35815.02091908489, "timestamp": "2025-12-26T23:26:42.395132+00:00", "meta": {"OBJECT_NAME": "BEIDOU-3 G3 (C61)", "OBJECT_ID": "2020-040A", "EPOCH": "2025-12-26T15:16:11.754624", "MEAN_MOTION": 1.00266662, "ECCENTRICITY": 0.00065884, "INCLINATION": 2.0227, "RA_OF_ASC_NODE": 66.6979, "ARG_OF_PERICENTER": 308.5345, "MEAN_ANOMALY": 59.7005, "EPHEMERIS_TYPE": 0, "CLASSIFICATION_TYPE": "U", "NORAD_CAT_ID": 45807, "ELEMENT_SET_NO": 999, "REV_AT_EPOCH": 2034, "BSTAR": 0, "MEAN_MOTION_DOT": -3.32e-06, "MEAN_MOTION_DDOT": 0}, "tle": {"line1": "1 45807U 20040A   25360.63624716 -.00000332  00000+0  00000+0 0  9998", "line2": "2 45807   2.0227  66.6979 0006588 308.5345  59.7005  1.00266662 20341"}}, "geometry": {"type": "Point", "coordinates": [-162.10087043072474, 1.5212072777541452]}}, {"type": "Feature", "properties": {"norad_id": 56564, "name": "BEIDOU-3 G4 (C62)", "group": "beidou", "lat": -0.6646168364086567, "lon": -112.53919996275623, "alt_km": 35783.552602218864, "timestamp": "2025-12-26T23:26:42.395142+00:00", "meta": {"OBJECT_NAME": "BEIDOU-3 G4 (C62)", "OBJECT_ID": "2023-066A", "EPOCH": "2025-12-26T15:11:02.876352", "MEAN_MOTION": 1.00270623, "ECCENTRICITY": 0.00025142, "INCLINATION": 0.7862, "RA_OF_ASC_NODE": 303.1351, "ARG_OF_PERICENTER": 230.5978, "MEAN_ANOMALY": 309.4542, "EPHEMERIS_TYPE": 0, "CLASSIFICATION_TYPE": "U", "NORAD_CAT_ID": 56564, "ELEMENT_SET_NO": 999, "REV_AT_EPOCH": 966, "BSTAR": 0, "MEAN_MOTION_DOT": -8.9e-07, "MEAN_MOTION_DDOT": 0}, "tle": {"line1": "1 56564U 23066A   25360.63267218 -.00000089  00000+0  00000+0 0  9990", "line2": "2 56564   0.7862 303.1351 0002514 230.5978 309.4542  1.00270623  9662"}}, "geometry": {"type": "Point", "coordinates": [-112.53919996275623, -0.6646168364086567]}}, {"type": "Feature", "properties": {"norad_id": 58654, "name": "BEIDOU-3 M28 (C50)", "group": "beidou", "lat": 22.36773456932131, "lon": 84.49384479113877, "alt_km": 21528.48713016843, "timestamp": "2025-12-26T23:26:42.395152+00:00", "meta": {"OBJECT_NAME": "BEIDOU-3 M28 (C50)", "OBJECT_ID": "2023-207A", "EPOCH": "2025-12-26T09:34:30.666720", "MEAN_MOTION": 1.86229622, "ECCENTRICITY": 0.0002968, "INCLINATION": 55.596, "RA_OF_ASC_NODE": 68.1388, "ARG_OF_PERICENTER": 276.5456, "MEAN_ANOMALY": 83.472, "EPHEMERIS_TYPE": 0, "CLASSIFICATION_TYPE": "U", "NORAD_CAT_ID": 58654, "ELEMENT_SET_NO": 999, "REV_AT_EPOCH": 1362, "BSTAR": 0, "MEAN_MOTION_DOT": -3.3e-07, "MEAN_MOTION_DDOT": 0}, "tle": {"line1": "1 58654U 23207A   25360.39896605 -.00000033  00000+0  00000+0 0  9999", "line2": "2 58654  55.5960  68.1388 0002968 276.5456  83.4720  1.86229622 13628"}}, "geometry": {"type": "Point", "coordinates": [84.49384479113877, 22.36773456932131]}}, {"type": "Feature", "properties": {"norad_id": 58655, "name": "BEIDOU-3 M26 (C48)", "group": "beidou", "lat": 13.83058329787594, "lon": -121.57900575546385, "alt_km": 21528.280746879474, "timestamp": "2025-12-26T23:26:42.395162+00:00", "meta": {"OBJECT_NAME": "BEIDOU-3 M26 (C48)", "OBJECT_ID": "2023-207B", "EPOCH": "2025-12-26T04:42:57.397824", "MEAN_MOTION": 1.86231148, "ECCENTRICITY": 0.00042709, "INCLINATION": 55.5979, "RA_OF_ASC_NODE": 68.1319, "ARG_OF_PERICENTER": 261.8376, "MEAN_ANOMALY": 98.1658, "EPHEMERIS_TYPE": 0, "CLASSIFICATION_TYPE": "U", "NORAD_CAT_ID": 58655, "ELEMENT_SET_NO": 999, "REV_AT_EPOCH": 1360, "BSTAR": 0, "MEAN_MOTION_DOT": -3.2e-07, "MEAN_MOTION_DDOT": 0}, "tle": {"line1": "1 58655U 23207B   25360.19649766 -.00000032  00000+0  00000+0 0  9991", "line2": "2 58655  55.5979  68.1319 0004270 261.8376  98.1658  1.86231148 13606"}}, "geometry": {"type": "Point", "coordinates": [-121.57900575546385, 13.83058329787594]}}]}